H-2A R/B                
1 28932U 06002B   26079.16615690  .00007528  00000+0  37577-3 0  9993
2 28932  98.2430 227.0936 0052188 205.0955 154.7738 15.16632555 96022
RESURS-DK 1             
1 29228U 06021A   26078.78442465  .00002533  00000+0  14998-3 0  9991
2 29228  69.9337 210.9089 0000856 135.2424 224.8811 15.12812447 89054
CZ-4B R/B               
1 29507U 06046C   26079.09738446  .00003755  00000+0  19113-3 0  9991
2 29507  97.5569 123.9778 0032009 229.5853 130.2587 15.17003198 61627
CZ-2C R/B               
1 31114U 07010B   26079.22297449  .00000108  00000+0  68904-4 0  9990
2 31114  98.3988 191.9743 0057854 263.3853  96.0737 14.20249828981213
COSMO-SKYMED 1          
1 31598U 07023A   26079.16154674  .00002687  00000+0  24105-3 0  9993
2 31598  97.8881 270.2790 0001412  87.1283 273.0100 14.96616200 16479
COSMOS 2428             
1 31792U 07029A   26079.15397128 -.00000015  00000+0  17562-4 0  9991
2 31792  70.9441 181.3809 0009516 266.4018  93.6015 14.12947502965578
SL-16 R/B               
1 31793U 07029B   26079.16193800  .00000349  00000+0  20567-3 0  9991
2 31793  70.9756 150.3727 0002345 276.5392 109.7657 14.14839273966853
KORONAS-FOTON           
1 33504U 09003A   26079.20228898  .00009657  00000+0  21370-3 0  9992
2 33504  82.4270 264.9447 0011784 115.4506 244.7962 15.43563893947369
CZ-2C R/B               
1 37731U 11030B   26078.87141723  .00001389  00000+0  18115-3 0  9991
2 37731  97.8563  35.9320 0051566 318.6211  57.6131 14.81258787791605
H-2A R/B                
1 38341U 12025E   26078.90055795  .00002745  00000+0  25130-3 0  9993
2 38341  98.4745  46.7654 0043143 279.7412  79.8935 14.95236073749749
SHIJIAN-16 (SJ-16)      
1 39358U 13057A   26079.22100942  .00001404  00000+0  13967-3 0  9995
2 39358  74.9740 165.1532 0015263  85.3009 274.9922 14.92389334673070
SL-4 R/B                
1 39679U 14021B   26078.95110064  .00012466  00000+0  27469-3 0  9990
2 39679  51.6056 287.2056 0096674 140.3265 220.4844 15.39501357657856
