CCSDS_OMM_VERS = 2.0
CREATION_DATE  = 
ORIGINATOR     = 

OBJECT_NAME    = H-2A R/B
OBJECT_ID      = 2006-002B
CENTER_NAME    = EARTH
REF_FRAME      = TEME
TIME_SYSTEM    = UTC
MEAN_ELEMENT_THEORY = SGP/SGP4

EPOCH          = 2026-03-20T03:59:15.956160
MEAN_MOTION    = 15.16632555
ECCENTRICITY   = .0052188
INCLINATION    = 98.2430
RA_OF_ASC_NODE = 227.0936
ARG_OF_PERICENTER = 205.0955
MEAN_ANOMALY   = 154.7738

EPHEMERIS_TYPE = 0
CLASSIFICATION_TYPE = U
NORAD_CAT_ID   = 28932
ELEMENT_SET_NO = 999
REV_AT_EPOCH   = 9602
BSTAR          = .37577E-3
MEAN_MOTION_DOT = .7528E-4
MEAN_MOTION_DDOT = 0

CCSDS_OMM_VERS = 2.0
CREATION_DATE  = 
ORIGINATOR     = 

OBJECT_NAME    = RESURS-DK 1
OBJECT_ID      = 2006-021A
CENTER_NAME    = EARTH
REF_FRAME      = TEME
TIME_SYSTEM    = UTC
MEAN_ELEMENT_THEORY = SGP/SGP4

EPOCH          = 2026-03-19T18:49:34.289760
MEAN_MOTION    = 15.12812447
ECCENTRICITY   = .00008562
INCLINATION    = 69.9337
RA_OF_ASC_NODE = 210.9089
ARG_OF_PERICENTER = 135.2424
MEAN_ANOMALY   = 224.8811

EPHEMERIS_TYPE = 0
CLASSIFICATION_TYPE = U
NORAD_CAT_ID   = 29228
ELEMENT_SET_NO = 999
REV_AT_EPOCH   = 8905
BSTAR          = .14998384E-3
MEAN_MOTION_DOT = .2533E-4
MEAN_MOTION_DDOT = 0

CCSDS_OMM_VERS = 2.0
CREATION_DATE  = 
ORIGINATOR     = 

OBJECT_NAME    = CZ-4B R/B
OBJECT_ID      = 2006-046C
CENTER_NAME    = EARTH
REF_FRAME      = TEME
TIME_SYSTEM    = UTC
MEAN_ELEMENT_THEORY = SGP/SGP4

EPOCH          = 2026-03-20T02:20:14.017344
MEAN_MOTION    = 15.17003198
ECCENTRICITY   = .0032009
INCLINATION    = 97.5569
RA_OF_ASC_NODE = 123.9778
ARG_OF_PERICENTER = 229.5853
MEAN_ANOMALY   = 130.2587

EPHEMERIS_TYPE = 0
CLASSIFICATION_TYPE = U
NORAD_CAT_ID   = 29507
ELEMENT_SET_NO = 999
REV_AT_EPOCH   = 6162
BSTAR          = .19113E-3
MEAN_MOTION_DOT = .3755E-4
MEAN_MOTION_DDOT = 0

CCSDS_OMM_VERS = 2.0
CREATION_DATE  = 
ORIGINATOR     = 

OBJECT_NAME    = CZ-2C R/B
OBJECT_ID      = 2007-010B
CENTER_NAME    = EARTH
REF_FRAME      = TEME
TIME_SYSTEM    = UTC
MEAN_ELEMENT_THEORY = SGP/SGP4

EPOCH          = 2026-03-20T05:21:04.995936
MEAN_MOTION    = 14.20249828
ECCENTRICITY   = .0057854
INCLINATION    = 98.3988
RA_OF_ASC_NODE = 191.9743
ARG_OF_PERICENTER = 263.3853
MEAN_ANOMALY   = 96.0737

EPHEMERIS_TYPE = 0
CLASSIFICATION_TYPE = U
NORAD_CAT_ID   = 31114
ELEMENT_SET_NO = 999
REV_AT_EPOCH   = 98121
BSTAR          = .68904E-4
MEAN_MOTION_DOT = .108E-5
MEAN_MOTION_DDOT = 0

CCSDS_OMM_VERS = 2.0
CREATION_DATE  = 
ORIGINATOR     = 

OBJECT_NAME    = COSMO-SKYMED 1
OBJECT_ID      = 2007-023A
CENTER_NAME    = EARTH
REF_FRAME      = TEME
TIME_SYSTEM    = UTC
MEAN_ELEMENT_THEORY = SGP/SGP4

EPOCH          = 2026-03-20T03:52:37.638336
MEAN_MOTION    = 14.96616200
ECCENTRICITY   = .0001412
INCLINATION    = 97.8881
RA_OF_ASC_NODE = 270.2790
ARG_OF_PERICENTER = 87.1283
MEAN_ANOMALY   = 273.0100

EPHEMERIS_TYPE = 0
CLASSIFICATION_TYPE = U
NORAD_CAT_ID   = 31598
ELEMENT_SET_NO = 999
REV_AT_EPOCH   = 1647
BSTAR          = .24105E-3
MEAN_MOTION_DOT = .2687E-4
MEAN_MOTION_DDOT = 0

CCSDS_OMM_VERS = 2.0
CREATION_DATE  = 
ORIGINATOR     = 

OBJECT_NAME    = COSMOS 2428
OBJECT_ID      = 2007-029A
CENTER_NAME    = EARTH
REF_FRAME      = TEME
TIME_SYSTEM    = UTC
MEAN_ELEMENT_THEORY = SGP/SGP4

EPOCH          = 2026-03-20T03:41:43.118592
MEAN_MOTION    = 14.12947502
ECCENTRICITY   = .0009516
INCLINATION    = 70.9441
RA_OF_ASC_NODE = 181.3809
ARG_OF_PERICENTER = 266.4018
MEAN_ANOMALY   = 93.6015

EPHEMERIS_TYPE = 0
CLASSIFICATION_TYPE = U
NORAD_CAT_ID   = 31792
ELEMENT_SET_NO = 999
REV_AT_EPOCH   = 96557
BSTAR          = .17562E-4
MEAN_MOTION_DOT = -.15E-6
MEAN_MOTION_DDOT = 0

CCSDS_OMM_VERS = 2.0
CREATION_DATE  = 
ORIGINATOR     = 

OBJECT_NAME    = SL-16 R/B
OBJECT_ID      = 2007-029B
CENTER_NAME    = EARTH
REF_FRAME      = TEME
TIME_SYSTEM    = UTC
MEAN_ELEMENT_THEORY = SGP/SGP4

EPOCH          = 2026-03-20T03:53:11.443200
MEAN_MOTION    = 14.14839273
ECCENTRICITY   = .0002345
INCLINATION    = 70.9756
RA_OF_ASC_NODE = 150.3727
ARG_OF_PERICENTER = 276.5392
MEAN_ANOMALY   = 109.7657

EPHEMERIS_TYPE = 0
CLASSIFICATION_TYPE = U
NORAD_CAT_ID   = 31793
ELEMENT_SET_NO = 999
REV_AT_EPOCH   = 96685
BSTAR          = .20567E-3
MEAN_MOTION_DOT = .349E-5
MEAN_MOTION_DDOT = 0

CCSDS_OMM_VERS = 2.0
CREATION_DATE  = 
ORIGINATOR     = 

OBJECT_NAME    = KORONAS-FOTON
OBJECT_ID      = 2009-003A
CENTER_NAME    = EARTH
REF_FRAME      = TEME
TIME_SYSTEM    = UTC
MEAN_ELEMENT_THEORY = SGP/SGP4

EPOCH          = 2026-03-20T04:51:17.767872
MEAN_MOTION    = 15.43563893
ECCENTRICITY   = .0011784
INCLINATION    = 82.4270
RA_OF_ASC_NODE = 264.9447
ARG_OF_PERICENTER = 115.4506
MEAN_ANOMALY   = 244.7962

EPHEMERIS_TYPE = 0
CLASSIFICATION_TYPE = U
NORAD_CAT_ID   = 33504
ELEMENT_SET_NO = 999
REV_AT_EPOCH   = 94736
BSTAR          = .2137E-3
MEAN_MOTION_DOT = .9657E-4
MEAN_MOTION_DDOT = 0

CCSDS_OMM_VERS = 2.0
CREATION_DATE  = 
ORIGINATOR     = 

OBJECT_NAME    = CZ-2C R/B
OBJECT_ID      = 2011-030B
CENTER_NAME    = EARTH
REF_FRAME      = TEME
TIME_SYSTEM    = UTC
MEAN_ELEMENT_THEORY = SGP/SGP4

EPOCH          = 2026-03-19T20:54:50.448672
MEAN_MOTION    = 14.81258787
ECCENTRICITY   = .0051566
INCLINATION    = 97.8563
RA_OF_ASC_NODE = 35.9320
ARG_OF_PERICENTER = 318.6211
MEAN_ANOMALY   = 57.6131

EPHEMERIS_TYPE = 0
CLASSIFICATION_TYPE = U
NORAD_CAT_ID   = 37731
ELEMENT_SET_NO = 999
REV_AT_EPOCH   = 79160
BSTAR          = .18114584E-3
MEAN_MOTION_DOT = .1389E-4
MEAN_MOTION_DDOT = 0

CCSDS_OMM_VERS = 2.0
CREATION_DATE  = 
ORIGINATOR     = 

OBJECT_NAME    = H-2A R/B
OBJECT_ID      = 2012-025E
CENTER_NAME    = EARTH
REF_FRAME      = TEME
TIME_SYSTEM    = UTC
MEAN_ELEMENT_THEORY = SGP/SGP4

EPOCH          = 2026-03-19T21:36:48.206880
MEAN_MOTION    = 14.95236073
ECCENTRICITY   = .0043143
INCLINATION    = 98.4745
RA_OF_ASC_NODE = 46.7654
ARG_OF_PERICENTER = 279.7412
MEAN_ANOMALY   = 79.8935

EPHEMERIS_TYPE = 0
CLASSIFICATION_TYPE = U
NORAD_CAT_ID   = 38341
ELEMENT_SET_NO = 999
REV_AT_EPOCH   = 74974
BSTAR          = .2513E-3
MEAN_MOTION_DOT = .2745E-4
MEAN_MOTION_DDOT = 0

CCSDS_OMM_VERS = 2.0
CREATION_DATE  = 
ORIGINATOR     = 

OBJECT_NAME    = SHIJIAN-16 (SJ-16)
OBJECT_ID      = 2013-057A
CENTER_NAME    = EARTH
REF_FRAME      = TEME
TIME_SYSTEM    = UTC
MEAN_ELEMENT_THEORY = SGP/SGP4

EPOCH          = 2026-03-20T05:18:15.213888
MEAN_MOTION    = 14.92389334
ECCENTRICITY   = .0015263
INCLINATION    = 74.9740
RA_OF_ASC_NODE = 165.1532
ARG_OF_PERICENTER = 85.3009
MEAN_ANOMALY   = 274.9922

EPHEMERIS_TYPE = 0
CLASSIFICATION_TYPE = U
NORAD_CAT_ID   = 39358
ELEMENT_SET_NO = 999
REV_AT_EPOCH   = 67307
BSTAR          = .13967E-3
MEAN_MOTION_DOT = .1404E-4
MEAN_MOTION_DDOT = 0

CCSDS_OMM_VERS = 2.0
CREATION_DATE  = 
ORIGINATOR     = 

OBJECT_NAME    = SL-4 R/B
OBJECT_ID      = 2014-021B
CENTER_NAME    = EARTH
REF_FRAME      = TEME
TIME_SYSTEM    = UTC
MEAN_ELEMENT_THEORY = SGP/SGP4

EPOCH          = 2026-03-19T22:49:35.095296
MEAN_MOTION    = 15.39501357
ECCENTRICITY   = .0096674
INCLINATION    = 51.6056
RA_OF_ASC_NODE = 287.2056
ARG_OF_PERICENTER = 140.3265
MEAN_ANOMALY   = 220.4844

EPHEMERIS_TYPE = 0
CLASSIFICATION_TYPE = U
NORAD_CAT_ID   = 39679
ELEMENT_SET_NO = 999
REV_AT_EPOCH   = 65785
BSTAR          = .27469E-3
MEAN_MOTION_DOT = .12466E-3
MEAN_MOTION_DDOT = 0

